ONEWEB-0509             
1 54127U 22138Q   23256.25931001  .00000773  00000+0  18986-2 0  9994
2 54127  87.9262 145.5653 0001763  82.8630 277.2703 13.19727827 43864
ONEWEB-0510             
1 54128U 22138R   23256.56670533  .00000100  00000+0  21299-3 0  9995
2 54128  87.9233 114.9875 0002151  78.3599 281.7776 13.20770209 46277
ONEWEB-0511             
1 54129U 22138S   23256.25614397  .00000136  00000+0  30795-3 0  9998
2 54129  87.9264 145.5668 0001485  89.7808 270.3495 13.19724088 43899
ONEWEB-0512             
1 54130U 22138T   23256.24823734  .00000106  00000+0  23163-3 0  9994
2 54130  87.9262 145.5678 0002092  92.7716 267.3656 13.19723636 43867
ONEWEB-0513             
1 54131U 22138U   23256.44647768  .00000063  00000+0  12572-3 0  9992
2 54131  87.9262 145.5328 0001945 101.4985 258.6367 13.19727036 43772
ONEWEB-0514             
1 54132U 22138V   23256.18823793  .00000173  00000+0  40017-3 0  9995
2 54132  87.9266 145.5823 0001741  76.4149 283.7177 13.19728177 43870
ONEWEB-0515             
1 54133U 22138W   23256.55408019  .00000757  00000+0  18297-2 0  9999
2 54133  87.9184 115.0286 0002015  58.3046 301.8283 13.20768765 46293
ONEWEB-0516             
1 54134U 22138X   23256.23877827  .00000074  00000+0  15159-3 0  9999
2 54134  87.9265 145.5685 0001926  77.2727 282.8621 13.19727968 43885
